51632,ONEWEB-0435,2022,109.89,148.0,+,87.89,Active,1,LEO,French Guiana,UK,Commercial,Communications,Soyuz,1 51632U 22012L   25014.42274851  .00000190  00000+0  50936-3 0  9994,2 51632  87.8916 139.6345 0001337 122.3395 237.7862 13.10369259141378,13.10369259,0.0001337,LEO
51633,ONEWEB-0436,2022,109.29,148.0,+,87.91,Active,1,LEO,French Guiana,UK,Commercial,Communications,Soyuz,1 51633U 22012M   25014.34035864  .00000062  00000+0  12639-3 0  9991,2 51633  87.9096 109.2205 0001736 115.4768 244.6544 13.17648556145350,13.17648556,0.0001736,LEO
51634,ONEWEB-0438,2022,109.89,148.0,+,87.89,Active,1,LEO,French Guiana,UK,Commercial,Communications,Soyuz,1 51634U 22012N   25014.40615274  .00000707  00000+0  19897-2 0  9996,2 51634  87.8917 139.6383 0001505  97.9359 262.1939 13.10376930141402,13.1037693,0.0001505,LEO
51635,ONEWEB-0439,2022,109.89,148.0,+,87.89,Active,1,LEO,French Guiana,UK,Commercial,Communications,Soyuz,1 51635U 22012P   25014.33312064  .00000721  00000+0  20286-2 0  9990,2 51635  87.8919 139.6393 0001503 106.2834 253.8459 13.10372774141378,13.10372774,0.0001503,LEO
51636,ONEWEB-0442,2022,109.29,148.0,+,87.91,Active,1,LEO,French Guiana,UK,Commercial,Communications,Soyuz,1 51636U 22012Q   25014.25683583  .00000081  00000+0  17624-3 0  9991,2 51636  87.9101 109.2791 0002093  88.1771 271.9600 13.17648291145337,13.17648291,0.0002093,LEO
51637,ONEWEB-0443,2022,109.29,148.0,+,87.91,Active,1,LEO,French Guiana,UK,Commercial,Communications,Soyuz,1 51637U 22012R   25014.27623422 -.00000232  00000+0 -63001-3 0  9990,2 51637  87.9102 109.2868 0001476  96.5424 263.5876 13.17649337145385,13.17649337,0.0001476,LEO
51638,ONEWEB-0444,2022,109.89,148.0,+,87.89,Active,1,LEO,French Guiana,UK,Commercial,Communications,Soyuz,1 51638U 22012S   25014.39951559  .00000619  00000+0  17380-2 0  9994,2 51638  87.8915 139.6371 0001394 108.4051 251.7228 13.10375860141398,13.1037586,0.0001394,LEO
51639,ONEWEB-0445,2022,109.89,148.0,+,87.89,Active,1,LEO,French Guiana,UK,Commercial,Communications,Soyuz,1 51639U 22012T   25014.34473540  .00000291  00000+0  79728-3 0  9990,2 51639  87.8910 139.6104 0001740 102.6511 257.4811 13.10369129141392,13.10369129,0.000174,LEO
